OBJECT_NAME,OBJECT_ID,EPOCH,MEAN_MOTION,ECCENTRICITY,INCLINATION,RA_OF_ASC_NODE,ARG_OF_PERICENTER,MEAN_ANOMALY,EPHEMERIS_TYPE,CLASSIFICATION_TYPE,NORAD_CAT_ID,ELEMENT_SET_NO,REV_AT_EPOCH,BSTAR,MEAN_MOTION_DOT,MEAN_MOTION_DDOT
STARLINK-34281,2025-120E,2026-06-14T08:05:40.227360,15.34389729,.00012445,53.1585,24.9135,111.8708,248.2427,0,U,64260,999,5870,.63369788E-3,.21088E-3,0
STARLINK-34297,2025-120F,2026-06-14T08:08:41.919648,15.34392664,.0001158,53.1596,24.9293,113.8405,246.2719,0,U,64261,999,5864,.83212996E-3,.27836E-3,0
STARLINK-34325,2025-120G,2026-06-13T21:43:00.221952,15.30193712,.0001353,53.1608,30.0312,90.3236,269.7920,0,U,64262,999,5864,.56513E-3,.16412E-3,0
STARLINK-34276,2025-120H,2026-06-13T22:05:05.548704,15.31699239,.0001232,53.1593,29.4173,77.5211,282.5928,0,U,64263,999,5865,.70029E-3,.21428E-3,0
STARLINK-34333,2025-120J,2026-06-14T07:38:24.046368,15.34397584,.00011586,53.1587,24.8019,106.5481,253.5649,0,U,64264,999,5870,.60398264E-3,.20083E-3,0
STARLINK-34240,2025-120K,2026-06-13T21:58:12.001152,15.30188809,.0001236,53.1597,30.0983,86.9513,273.1630,0,U,64265,999,5864,.56046E-3,.16271E-3,0
STARLINK-34315,2025-120L,2026-06-14T08:33:46.600704,15.30205639,.00012965,53.1602,27.8752,53.8227,306.2894,0,U,64266,999,5865,.71635854E-3,.20921E-3,0
STARLINK-34321,2025-120M,2026-06-14T07:47:29.527584,15.34400279,.00010756,53.1600,24.8369,98.0641,262.0484,0,U,64267,999,5875,.92664764E-3,.31062E-3,0
STARLINK-34319,2025-120N,2026-06-14T08:11:43.651680,15.34391221,.00010158,53.1592,24.9386,98.1923,261.9195,0,U,64268,999,5874,.66403677E-3,.22119E-3,0
STARLINK-34298,2025-120P,2026-06-14T07:50:31.355520,15.34400274,.00012794,53.1600,24.8531,88.6009,271.5140,0,U,64269,999,5865,.10560043E-2,.35472E-3,0
STARLINK-34219,2025-120Q,2026-06-13T21:47:33.472320,15.30200375,.0001102,53.1600,30.0462,101.3641,258.7484,0,U,64270,999,5864,.60355E-3,.17559E-3,0
STARLINK-34342,2025-120R,2026-06-13T21:20:14.377056,15.30197896,.0001195,53.1609,29.9329,101.0695,259.0440,0,U,64271,999,5859,.10329501E-2,.30357E-3,0
STARLINK-34001,2025-120S,2026-06-13T21:53:38.442336,15.30192872,.0001193,53.1597,30.0745,67.6476,292.4651,0,U,64272,999,5854,.55035E-3,.15972E-3,0
STARLINK-34334,2025-120T,2026-06-14T07:26:54.996000,15.30194523,.00010031,53.1591,27.5848,96.0869,264.0246,0,U,64273,999,5871,.64227723E-3,.18708E-3,0
STARLINK-34272,2025-120U,2026-06-13T23:18:34.173504,15.30177496,.00006808,53.1600,29.7331,79.7629,280.3448,0,U,64274,999,5855,.95787957E-3,.28098E-3,0
STARLINK-34293,2025-120V,2026-06-13T21:49:04.919808,15.30187204,.0001125,53.1599,30.0522,69.7756,290.3366,0,U,64275,999,5858,.59585E-3,.17323E-3,0
STARLINK-34350,2025-120W,2026-06-13T22:33:46.173600,15.34375796,.000097,53.1606,26.7008,67.7004,292.4101,0,U,64276,999,5869,-.93166E-3,-.31697E-3,0
STARLINK-34264,2025-120X,2026-06-14T08:24:39.598848,15.30197129,.00013153,53.1591,27.8294,108.1656,251.9488,0,U,64277,999,5865,.74265837E-3,.21699E-3,0
STARLINK-34353,2025-120Y,2026-06-14T05:30:13.705056,15.30201166,.000121,53.1599,28.4972,75.5931,284.5204,0,U,64278,999,5869,.69617E-3,.20317E-3,0
STARLINK-34377,2025-120Z,2026-06-14T07:59:38.064480,15.34395349,.000138,53.1601,24.8861,84.6390,275.4770,0,U,64279,999,5875,.12848665E-2,.43279E-3,0
STARLINK-34359,2025-120AA,2026-06-14T08:32:15.517824,15.30197360,.00013015,53.1593,27.8597,100.2214,259.8934,0,U,64280,999,5871,.62973789E-3,.18336E-3,0
STARLINK-34366,2025-120AB,2026-06-14T08:09:27.553536,15.30213666,.00014582,53.1609,27.7649,92.3544,267.7624,0,U,64281,999,5866,.68009941E-3,.19846E-3,0
STARLINK-34381,2025-120AC,2026-06-14T08:21:37.211904,15.30196237,.00010921,53.1590,27.8176,87.9051,272.2075,0,U,64282,999,5869,.57947144E-3,.1684E-3,0
STARLINK-34448,2025-123A,2026-06-14T15:51:47.166048,14.98334597,.00023668,70.0018,309.9728,269.5523,90.5365,0,U,64291,999,5736,-.10055942E-4,-.213E-5,0
STARLINK-34362,2025-123B,2026-06-14T12:57:18.589536,14.98335112,.00031805,70.0018,310.3484,269.2182,90.8612,0,U,64292,999,5734,.29233563E-3,.3397E-4,0
STARLINK-34428,2025-123C,2026-06-14T13:45:21.360096,14.98336313,.00026304,70.0010,310.0629,271.4439,88.6418,0,U,64293,999,5735,.20636826E-3,.2371E-4,0
STARLINK-34388,2025-123D,2026-06-14T13:09:33.579648,14.98320933,.0003212,70.0017,310.3741,269.8581,90.2210,0,U,64294,999,5734,.3502027E-4,.325E-5,0
STARLINK-34424,2025-123E,2026-06-14T13:21:21.105792,14.98326980,.00036127,70.0016,310.3968,266.3045,93.7701,0,U,64295,999,5734,.12100442E-3,.1351E-4,0
STARLINK-34443,2025-123F,2026-06-14T15:45:32.249664,14.98334630,.00022097,70.0005,309.9527,262.7061,97.3847,0,U,64296,999,5736,.19613465E-3,.2248E-4,0
STARLINK-34369,2025-123G,2026-06-14T12:51:32.125536,14.98335559,.00031344,70.0012,310.3291,268.2023,91.8777,0,U,64297,999,5612,.30170277E-3,.3509E-4,0
