STARLINK-34281          
1 64260U 25120E   26165.33727115  .00021088  00000+0  63370-3 0  9997
2 64260  53.1585  24.9135 0001244 111.8708 248.2427 15.34389729 58708
STARLINK-34297          
1 64261U 25120F   26165.33937407  .00027836  00000+0  83213-3 0  9990
2 64261  53.1596  24.9293 0001158 113.8405 246.2719 15.34392664 58643
STARLINK-34325          
1 64262U 25120G   26164.90486368  .00016412  00000+0  56513-3 0  9999
2 64262  53.1608  30.0312 0001353  90.3236 269.7920 15.30193712 58649
STARLINK-34276          
1 64263U 25120H   26164.92020311  .00021428  00000+0  70029-3 0  9995
2 64263  53.1593  29.4173 0001232  77.5211 282.5928 15.31699239 58654
STARLINK-34333          
1 64264U 25120J   26165.31833387  .00020083  00000+0  60398-3 0  9999
2 64264  53.1587  24.8019 0001158 106.5481 253.5649 15.34397584 58700
STARLINK-34240          
1 64265U 25120K   26164.91541668  .00016271  00000+0  56046-3 0  9992
2 64265  53.1597  30.0983 0001236  86.9513 273.1630 15.30188809 58640
STARLINK-34315          
1 64266U 25120L   26165.35678936  .00020921  00000+0  71636-3 0  9990
2 64266  53.1602  27.8752 0001296  53.8227 306.2894 15.30205639 58659
STARLINK-34321          
1 64267U 25120M   26165.32464731  .00031062  00000+0  92665-3 0  9997
2 64267  53.1600  24.8369 0001075  98.0641 262.0484 15.34400279 58751
STARLINK-34319          
1 64268U 25120N   26165.34147745  .00022119  00000+0  66404-3 0  9998
2 64268  53.1592  24.9386 0001015  98.1923 261.9195 15.34391221 58742
STARLINK-34298          
1 64269U 25120P   26165.32675180  .00035472  00000+0  10560-2 0  9993
2 64269  53.1600  24.8531 0001279  88.6009 271.5140 15.34400274 58651
STARLINK-34219          
1 64270U 25120Q   26164.90802630  .00017559  00000+0  60355-3 0  9994
2 64270  53.1600  30.0462 0001102 101.3641 258.7484 15.30200375 58648
STARLINK-34342          
1 64271U 25120R   26164.88905529  .00030357  00000+0  10330-2 0  9991
2 64271  53.1609  29.9329 0001195 101.0695 259.0440 15.30197896 58598
STARLINK-34001          
1 64272U 25120S   26164.91225049  .00015972  00000+0  55035-3 0  9996
2 64272  53.1597  30.0745 0001193  67.6476 292.4651 15.30192872 58541
STARLINK-34334          
1 64273U 25120T   26165.31035875  .00018708  00000+0  64228-3 0  9992
2 64273  53.1591  27.5848 0001003  96.0869 264.0246 15.30194523 58712
STARLINK-34272          
1 64274U 25120U   26164.97122886  .00028098  00000+0  95788-3 0  9991
2 64274  53.1600  29.7331 0000680  79.7629 280.3448 15.30177496 58554
STARLINK-34293          
1 64275U 25120V   26164.90908472  .00017323  00000+0  59585-3 0  9992
2 64275  53.1599  30.0522 0001125  69.7756 290.3366 15.30187204 58585
STARLINK-34350          
1 64276U 25120W   26164.94011775 -.00031697  00000+0 -93166-3 0  9993
2 64276  53.1606  26.7008 0000970  67.7004 292.4101 15.34375796 58698
STARLINK-34264          
1 64277U 25120X   26165.35045832  .00021699  00000+0  74266-3 0  9990
2 64277  53.1591  27.8294 0001315 108.1656 251.9488 15.30197129 58650
STARLINK-34353          
1 64278U 25120Y   26165.22932529  .00020317  00000+0  69617-3 0  9995
2 64278  53.1599  28.4972 0001210  75.5931 284.5204 15.30201166 58695
STARLINK-34377          
1 64279U 25120Z   26165.33307945  .00043279  00000+0  12849-2 0  9992
2 64279  53.1601  24.8861 0001380  84.6390 275.4770 15.34395349 58750
STARLINK-34359          
1 64280U 25120AA  26165.35573516  .00018336  00000+0  62974-3 0  9996
2 64280  53.1593  27.8597 0001301 100.2214 259.8934 15.30197360 58717
STARLINK-34366          
1 64281U 25120AB  26165.33990224  .00019846  00000+0  68010-3 0  9998
2 64281  53.1609  27.7649 0001458  92.3544 267.7624 15.30213666 58669
STARLINK-34381          
1 64282U 25120AC  26165.34834736  .00016840  00000+0  57947-3 0  9993
2 64282  53.1590  27.8176 0001092  87.9051 272.2075 15.30196237 58690
STARLINK-34448          
1 64291U 25123A   26165.66096257 -.00000213  00000+0 -10056-4 0  9999
2 64291  70.0018 309.9728 0002366 269.5523  90.5365 14.98334597 57369
STARLINK-34362          
1 64292U 25123B   26165.53979849  .00003397  00000+0  29234-3 0  9994
2 64292  70.0018 310.3484 0003180 269.2182  90.8612 14.98335112 57348
STARLINK-34428          
1 64293U 25123C   26165.57316389  .00002371  00000+0  20637-3 0  9992
2 64293  70.0010 310.0629 0002630 271.4439  88.6418 14.98336313 57352
STARLINK-34388          
1 64294U 25123D   26165.54830532  .00000325  00000+0  35020-4 0  9991
2 64294  70.0017 310.3741 0003212 269.8581  90.2210 14.98320933 57343
STARLINK-34424          
1 64295U 25123E   26165.55649428  .00001351  00000+0  12100-3 0  9998
2 64295  70.0016 310.3968 0003612 266.3045  93.7701 14.98326980 57346
STARLINK-34443          
1 64296U 25123F   26165.65662326  .00002248  00000+0  19613-3 0  9994
2 64296  70.0005 309.9527 0002209 262.7061  97.3847 14.98334630 57363
STARLINK-34369          
1 64297U 25123G   26165.53578849  .00003509  00000+0  30170-3 0  9990
2 64297  70.0012 310.3291 0003134 268.2023  91.8777 14.98335559 56128
